{
  "type": "FeatureCollection",
  "features": [
    {
      "type": "Feature",
      "properties": {
        "norad_id": 41581,
        "name": "INTELSAT 31 (IS-31)",
        "group": "intelsat",
        "lat": -0.015085366755013832,
        "lon": -80.6893404162944,
        "alt_km": 35784.10358002107,
        "timestamp": "2025-12-21T18:54:58.161217+00:00",
        "meta_object_name": "INTELSAT 31 (IS-31)",
        "meta_object_id": "2016-035A",
        "meta_epoch": "2025-12-20T14:29:23.871264",
        "meta_mean_motion": 1.00271704,
        "meta_eccentricity": 0.00019976,
        "meta_inclination": 0.0288,
        "meta_ra_of_asc_node": 267.9464,
        "meta_arg_of_pericenter": 295.2319,
        "meta_mean_anomaly": 8.5584,
        "meta_ephemeris_type": 0,
        "meta_classification_type": "U",
        "meta_norad_cat_id": 41581,
        "meta_element_set_no": 999,
        "meta_rev_at_epoch": 3489,
        "meta_bstar": 0,
        "meta_mean_motion_dot": -1.27e-06,
        "meta_mean_motion_ddot": 0,
        "tle_line1": "1 41581U 16035A   25354.60374851 -.00000127  00000+0  00000+0 0  9996",
        "tle_line2": "2 41581   0.0288 267.9464 0001997 295.2319   8.5584  1.00271704 34890"
      },
      "geometry": {
        "type": "Point",
        "coordinates": [
          -80.6893404162944,
          -0.015085366755013832
        ]
      }
    },
    {
      "type": "Feature",
      "properties": {
        "norad_id": 41747,
        "name": "INTELSAT 36 (IS-36)",
        "group": "intelsat",
        "lat": 0.03692306644827932,
        "lon": 82.84740026518442,
        "alt_km": 35787.79545904645,
        "timestamp": "2025-12-21T18:54:58.161228+00:00",
        "meta_object_name": "INTELSAT 36 (IS-36)",
        "meta_object_id": "2016-053A",
        "meta_epoch": "2025-12-21T04:57:48.972384",
        "meta_mean_motion": 1.00273317,
        "meta_eccentricity": 0.0001215,
        "meta_inclination": 0.0105,
        "meta_ra_of_asc_node": 358.7052,
        "meta_arg_of_pericenter": 329.3234,
        "meta_mean_anomaly": 264.9497,
        "meta_ephemeris_type": 0,
        "meta_classification_type": "U",
        "meta_norad_cat_id": 41747,
        "meta_element_set_no": 999,
        "meta_rev_at_epoch": 3416,
        "meta_bstar": 0,
        "meta_mean_motion_dot": -2e-08,
        "meta_mean_motion_ddot": 0,
        "tle_line1": "1 41747U 16053A   25355.20681681 -.00000002  00000+0  00000+0 0  9991",
        "tle_line2": "2 41747   0.0105 358.7052 0001215 329.3234 264.9497  1.00273317 34165"
      },
      "geometry": {
        "type": "Point",
        "coordinates": [
          82.84740026518442,
          0.03692306644827932
        ]
      }
    },
    {
      "type": "Feature",
      "properties": {
        "norad_id": 41945,
        "name": "INTELSAT 32E (IS-32E)",
        "group": "intelsat",
        "lat": -0.0369641548038059,
        "lon": -28.85765355681932,
        "alt_km": 35785.455856049404,
        "timestamp": "2025-12-21T18:54:58.161240+00:00",
        "meta_object_name": "INTELSAT 32E (IS-32E)",
        "meta_object_id": "2017-007B",
        "meta_epoch": "2025-12-21T08:28:38.563104",
        "meta_mean_motion": 1.00267685,
        "meta_eccentricity": 7.959e-05,
        "meta_inclination": 0.0278,
        "meta_ra_of_asc_node": 70.3074,
        "meta_arg_of_pericenter": 317.4297,
        "meta_mean_anomaly": 146.417,
        "meta_ephemeris_type": 0,
        "meta_classification_type": "U",
        "meta_norad_cat_id": 41945,
        "meta_element_set_no": 999,
        "meta_rev_at_epoch": 3244,
        "meta_bstar": 0,
        "meta_mean_motion_dot": -2.46e-06,
        "meta_mean_motion_ddot": 0,
        "tle_line1": "1 41945U 17007B   25355.35322411 -.00000246  00000+0  00000+0 0  9990",
        "tle_line2": "2 41945   0.0278  70.3074 0000795 317.4297 146.4170  1.00267685 32448"
      },
      "geometry": {
        "type": "Point",
        "coordinates": [
          -28.85765355681932,
          -0.0369641548038059
        ]
      }
    },
    {
      "type": "Feature",
      "properties": {
        "norad_id": 42818,
        "name": "INTELSAT 35E (IS-35E)",
        "group": "intelsat",
        "lat": -0.025936212009900556,
        "lon": -20.134759276681375,
        "alt_km": 35783.35852718825,
        "timestamp": "2025-12-21T18:54:58.161251+00:00",
        "meta_object_name": "INTELSAT 35E (IS-35E)",
        "meta_object_id": "2017-041A",
        "meta_epoch": "2025-12-21T02:45:46.617696",
        "meta_mean_motion": 1.00270832,
        "meta_eccentricity": 0.0001858,
        "meta_inclination": 0.017,
        "meta_ra_of_asc_node": 28.2756,
        "meta_arg_of_pericenter": 244.397,
        "meta_mean_anomaly": 184.2219,
        "meta_ephemeris_type": 0,
        "meta_classification_type": "U",
        "meta_norad_cat_id": 42818,
        "meta_element_set_no": 999,
        "meta_rev_at_epoch": 3103,
        "meta_bstar": 0,
        "meta_mean_motion_dot": -2.15e-06,
        "meta_mean_motion_ddot": 0,
        "tle_line1": "1 42818U 17041A   25355.11512289 -.00000215  00000+0  00000+0 0  9992",
        "tle_line2": "2 42818   0.0170  28.2756 0001858 244.3970 184.2219  1.00270832 31031"
      },
      "geometry": {
        "type": "Point",
        "coordinates": [
          -20.134759276681375,
          -0.025936212009900556
        ]
      }
    },
    {
      "type": "Feature",
      "properties": {
        "norad_id": 42950,
        "name": "INTELSAT 37E (IS-37E)",
        "group": "intelsat",
        "lat": -0.013397961009813298,
        "lon": -3.6281601329729134,
        "alt_km": 35786.67851128682,
        "timestamp": "2025-12-21T18:54:58.161262+00:00",
        "meta_object_name": "INTELSAT 37E (IS-37E)",
        "meta_object_id": "2017-059A",
        "meta_epoch": "2025-12-21T07:58:36.876864",
        "meta_mean_motion": 1.00273331,
        "meta_eccentricity": 0.00028416,
        "meta_inclination": 0.0189,
        "meta_ra_of_asc_node": 20.7753,
        "meta_arg_of_pericenter": 240.6513,
        "meta_mean_anomaly": 290.3802,
        "meta_ephemeris_type": 0,
        "meta_classification_type": "U",
        "meta_norad_cat_id": 42950,
        "meta_element_set_no": 999,
        "meta_rev_at_epoch": 3028,
        "meta_bstar": 0,
        "meta_mean_motion_dot": -1.18e-06,
        "meta_mean_motion_ddot": 0,
        "tle_line1": "1 42950U 17059A   25355.33237126 -.00000118  00000+0  00000+0 0  9998",
        "tle_line2": "2 42950   0.0189  20.7753 0002841 240.6513 290.3802  1.00273331 30287"
      },
      "geometry": {
        "type": "Point",
        "coordinates": [
          -3.6281601329729134,
          -0.013397961009813298
        ]
      }
    },
    {
      "type": "Feature",
      "properties": {
        "norad_id": 43632,
        "name": "AZERSPACE 2 (IS-38)",
        "group": "intelsat",
        "lat": 0.04072668565971759,
        "lon": 59.458003470943936,
        "alt_km": 35790.89393384457,
        "timestamp": "2025-12-21T18:54:58.161273+00:00",
        "meta_object_name": "AZERSPACE 2 (IS-38)",
        "meta_object_id": "2018-074A",
        "meta_epoch": "2025-12-21T11:42:03.852576",
        "meta_mean_motion": 1.00269923,
        "meta_eccentricity": 0.00011448,
        "meta_inclination": 0.0185,
        "meta_ra_of_asc_node": 341.5133,
        "meta_arg_of_pericenter": 284.6301,
        "meta_mean_anomaly": 44.7962,
        "meta_ephemeris_type": 0,
        "meta_classification_type": "U",
        "meta_norad_cat_id": 43632,
        "meta_element_set_no": 999,
        "meta_rev_at_epoch": 2666,
        "meta_bstar": 0,
        "meta_mean_motion_dot": 1.59e-06,
        "meta_mean_motion_ddot": 0,
        "tle_line1": "1 43632U 18074A   25355.48754459  .00000159  00000+0  00000+0 0  9997",
        "tle_line2": "2 43632   0.0185 341.5133 0001144 284.6301  44.7962  1.00269923 26662"
      },
      "geometry": {
        "type": "Point",
        "coordinates": [
          59.458003470943936,
          0.04072668565971759
        ]
      }
    },
    {
      "type": "Feature",
      "properties": {
        "norad_id": 43633,
        "name": "HORIZONS-3E",
        "group": "intelsat",
        "lat": -0.0022577590447444007,
        "lon": -176.69250676197265,
        "alt_km": 35787.78529894546,
        "timestamp": "2025-12-21T18:54:58.161284+00:00",
        "meta_object_name": "HORIZONS-3E",
        "meta_object_id": "2018-074B",
        "meta_epoch": "2025-12-20T20:52:53.061312",
        "meta_mean_motion": 1.00270825,
        "meta_eccentricity": 6.664e-05,
        "meta_inclination": 0.0092,
        "meta_ra_of_asc_node": 228.8409,
        "meta_arg_of_pericenter": 76.0136,
        "meta_mean_anomaly": 267.0442,
        "meta_ephemeris_type": 0,
        "meta_classification_type": "U",
        "meta_norad_cat_id": 43633,
        "meta_element_set_no": 999,
        "meta_rev_at_epoch": 2655,
        "meta_bstar": 0,
        "meta_mean_motion_dot": 0,
        "meta_mean_motion_ddot": 0,
        "tle_line1": "1 43633U 18074B   25354.87005858  .00000000  00000+0  00000+0 0  9997",
        "tle_line2": "2 43633   0.0092 228.8409 0000666  76.0136 267.0442  1.00270825 26554"
      },
      "geometry": {
        "type": "Point",
        "coordinates": [
          -176.69250676197265,
          -0.0022577590447444007
        ]
      }
    }
  ]
}